1 44964U 20001BC  22365.06606588  .00003979  00000-0  28578-3 0  9998
2 44964  53.0550 134.8147 0001311  77.1516 282.9620 15.06409660164870
1 44964U 20001BC  22365.39780488  .00003380  00000-0  24565-3 0  9994
2 44964  53.0551 133.3256 0001333  78.4950 281.6188 15.06403535164922
1 44964U 20001BC  22365.53049874  .00004189  00000-0  29988-3 0  9999
2 44964  53.0540 132.7298 0001377  77.6542 282.4601 15.06408484164944
1 44964U 20001BC  22365.79588872  .00002479  00000-0  18525-3 0  9998
2 44964  53.0540 131.5386 0001467  73.3867 286.7283 15.06403004164982
1 44964U 20001BC  22365.79588872  .00002479  00000-0  18525-3 0  9998
2 44964  53.0540 131.5386 0001467  73.3867 286.7283 15.06403004164982
1 44964U 20001BC  23001.72474684 -.00004366  00000-0 -27446-3 0  9995
2 44964  53.0542 127.3675 0001491  63.7913 296.3229 15.06389650165124
1 44964U 20001BC  23002.05648080 -.00002657  00000-0 -15961-3 0  9995
2 44964  53.0546 125.8795 0001352  72.3740 287.7397 15.06392239165176
1 44964U 20001BC  23002.58725315  .00000613  00000-0  60029-4 0  9994
2 44964  53.0542 123.4969 0001329  72.7231 287.3904 15.06401697165250
1 44964U 20001BC  23002.71994563  .00000094  00000-0  25219-4 0  9997
2 44964  53.0559 122.9001 0001318  72.1551 287.9582 15.06405662165272
1 44964U 20001BC  23002.71994563  .00000094  00000-0  25219-4 0  9997
2 44964  53.0559 122.9001 0001318  72.1551 287.9582 15.06405662165272
1 44964U 20001BC  23003.05168706  .00000658  00000-0  63072-4 0  9992
2 44964  53.0549 121.4127 0001414  71.9730 288.1412 15.06394236165322
1 44964U 20001BC  23003.58245883  .00003255  00000-0  23736-3 0  9990
2 44964  53.0554 119.0304 0001391  69.0534 291.0604 15.06397038165400
1 44964U 20001BC  23004.57765626  .00003568  00000-0  25822-3 0  9997
2 44964  53.0551 114.5642 0001437  58.6202 301.4928 15.06410329165559
1 44964U 20001BC  23004.57765626  .00003568  00000-0  25822-3 0  9997
2 44964  53.0551 114.5642 0001437  58.6202 301.4928 15.06410329165559
1 44964U 20001BC  23005.30749153 -.00005641  00000-0 -36039-3 0  9994
2 44964  53.0551 111.2868 0001488  76.6613 283.4542 15.06373304165669
1 44964U 20001BC  23005.44018513 -.00005296  00000-0 -33716-3 0  9993
2 44964  53.0547 110.6902 0001551  79.3884 280.7280 15.06374509165686
1 44964U 20001BC  23006.30269808  .00022316  00000-0  15125-2 0  9997
2 44964  53.0548 106.8184 0001567  83.6638 276.4530 15.06396009165812
1 44964U 20001BC  23006.56808364  .00020430  00000-0  13861-2 0  9991
2 44964  53.0549 105.6283 0001576  77.4768 282.6397 15.06410464165851
1 44964U 20001BC  23006.96616417  .00013771  00000-0  94133-3 0  9993
2 44964  53.0553 103.8432 0000926  69.7943 290.3145 15.06409600165913
1 44964U 20001BC  23007.23155673  .00004830  00000-0  34297-3 0  9997
2 44964  53.0544 102.6509 0002033  84.2724 275.8496 15.06398351165956
1 44964U 20001BC  23007.43059997  .00016220  00000-0  11057-2 0  9995
2 44964  53.0546 101.7561 0001286  81.9055 278.2080 15.06386127165983
1 44964U 20001BC  23007.43059997  .00016220  00000-0  11057-2 0  9995
2 44964  53.0546 101.7561 0001286  81.9055 278.2080 15.06386127165983
1 44964U 20001BC  23008.29311231  .00014666  00000-0  10013-2 0  9995
2 44964  53.0543  97.8845 0001294  81.1838 278.9298 15.06403594166112
1 44964U 20001BC  23008.29311231  .00014666  00000-0  10013-2 0  9995
2 44964  53.0543  97.8845 0001294  81.1838 278.9298 15.06403594166112
1 44964U 20001BC  23008.62484242  .00018413  00000-0  12511-2 0  9994
2 44964  53.0544  96.3952 0001327  80.0750 280.0389 15.06419894166164
1 44964U 20001BC  23009.48734181  .00015338  00000-0  10454-2 0  9996
2 44964  53.0541  92.5235 0002219  85.0842 275.0400 15.06433041166293
1 44964U 20001BC  23009.62003380  .00009009  00000-0  62251-3 0  9993
2 44964  53.0540  91.9277 0001427  88.8011 271.3141 15.06422902166318
1 44964U 20001BC  23009.62003380  .00009009  00000-0  62251-3 0  9993
2 44964  53.0540  91.9277 0001427  88.8011 271.3141 15.06422902166318
1 44964U 20001BC  23010.21716002  .00005004  00000-0  35454-3 0  9998
2 44964  53.0498  89.2466 0002044  78.9566 281.1652 15.06403218166406
1 44964U 20001BC  23010.48254766  .00003450  00000-0  25037-3 0  9990
2 44964  53.0530  88.0553 0001331  76.3855 283.7282 15.06398218166442
1 44964U 20001BC  23010.48254766  .00003450  00000-0  25037-3 0  9990
2 44964  53.0530  88.0553 0001331  76.3855 283.7282 15.06398218166442
1 44964U 20001BC  23011.54409946  .00005431  00000-0  38315-3 0  9994
2 44964  53.0546  83.2898 0001365  79.0350 281.0792 15.06404590166601
1 44964U 20001BC  23011.54409946  .00005431  00000-0  38315-3 0  9994
2 44964  53.0546  83.2898 0001365  79.0350 281.0792 15.06404590166601
1 44964U 20001BC  23012.14122495  .00002628  00000-0  19526-3 0  9990
2 44964  53.0567  80.6129 0001597  77.8668 282.2500 15.06397356166697
1 44964U 20001BC  23012.87104044  .00003925  00000-0  28222-3 0  9994
2 44964  53.0543  77.3328 0001261  87.9591 272.1542 15.06402185166804
1 44964U 20001BC  23013.53451116  .00001796  00000-0  13943-3 0  9991
2 44964  53.0552  74.3565 0001499  96.8237 263.2923 15.06398739166907
1 44964U 20001BC  23013.53451116  .00001796  00000-0  13943-3 0  9991
2 44964  53.0552  74.3565 0001499  96.8237 263.2923 15.06398739166907
1 44964U 20001BC  23013.86624570  .00001935  00000-0  14874-3 0  9992
2 44964  53.0547  72.8684 0001474  98.4320 261.6836 15.06399177166957
1 44964U 20001BC  23014.86145576  .00000656  00000-0  62957-4 0  9992
2 44964  53.0545  68.4005 0001998  86.9423 273.1795 15.06391940167100
1 44964U 20001BC  23015.52492504  .00001384  00000-0  11179-3 0  9990
2 44964  53.0542  65.4200 0002015  85.2187 274.9032 15.06395663167201
1 44964U 20001BC  23015.85666010  .00002938  00000-0  21608-3 0  9995
2 44964  53.0550  63.9312 0002092  84.7149 275.4079 15.06398742167257
1 44964U 20001BC  23016.18838940  .00006080  00000-0  42662-3 0  9990
2 44964  53.0537  62.4415 0001606  86.4857 273.6315 15.06407879167306
1 44964U 20001BC  23016.52011769  .00016947  00000-0  11530-2 0  9992
2 44964  53.0542  60.9518 0001531  86.5096 273.6068 15.06428645167356
1 44964U 20001BC  23017.11725176 -.00005743  00000-0 -36714-3 0  9998
2 44964  53.0551  58.2754 0001549  72.0325 288.0833 15.06383875167447
1 44964U 20001BC  23017.44898945 -.00005321  00000-0 -33880-3 0  9992
2 44964  53.0541  56.7841 0001658  93.9495 266.1683 15.06379048167499
1 44964U 20001BC  23018.37784457  .00032647  00000-0  21988-2 0  9991
2 44964  53.0556  52.6131 0001596 101.5030 258.6138 15.06428116167632
1 44964U 20001BC  23018.77592166  .00023329  00000-0  15787-2 0  9996
2 44964  53.0559  50.8250 0001659  98.8992 261.2184 15.06428193167694
1 44964U 20001BC  23018.77592166  .00023329  00000-0  15787-2 0  9996
2 44964  53.0559  50.8250 0001659  98.8992 261.2184 15.06428193167694
1 44964U 20001BC  23019.17399957  .00006731  00000-0  47017-3 0  9994
2 44964  53.0552  49.0385 0001511 103.5771 256.5386 15.06415764167750
1 44964U 20001BC  23019.43938233  .00026739  00000-0  18058-2 0  9991
2 44964  53.0554  47.8478 0001403  96.7508 263.3640 15.06428118167792
1 44964U 20001BC  23019.97016076  .00006131  00000-0  43019-3 0  9992
2 44964  53.0555  45.4645 0001371  89.7535 270.3611 15.06394493167872
1 44964U 20001BC  23020.36824497  .00022988  00000-0  15574-2 0  9993
2 44964  53.0552  43.6779 0001399  87.5224 272.5925 15.06393341167938
1 44964U 20001BC  23021.23075693  .00015177  00000-0  10354-2 0  9999
2 44964  53.0548  39.8057 0001522  90.9451 269.1712 15.06406379168064
1 44964U 20001BC  23022.29228978  .00015919  00000-0  10841-2 0  9997
2 44964  53.0555  35.0397 0001715  89.6898 270.4288 15.06437963168225
1 44964U 20001BC  23022.75672599  .00001937  00000-0  14901-3 0  9997
2 44964  53.0556  32.9549 0001531  76.6303 283.4857 15.06374413168297
1 44964U 20001BC  23023.28750508  .00000106  00000-0  26024-4 0  9990
2 44964  53.0559  30.5722 0001594  78.0933 282.0235 15.06389296168370
1 44964U 20001BC  23024.21638261  .00002451  00000-0  18353-3 0  9995
2 44964  53.0559  26.4008 0001688  83.9626 276.1555 15.06373180168519
1 44964U 20001BC  23025.14523639  .00007277  00000-0  50694-3 0  9995
2 44964  53.0570  22.2321 0001541  80.7606 279.3557 15.06400340168656
1 44964U 20001BC  23025.34427200  .00009898  00000-0  68220-3 0  9999
2 44964  53.0565  21.3381 0001704  86.5823 273.5361 15.06413242168689
1 44964U 20001BC  23025.34427200  .00009898  00000-0  68220-3 0  9999
2 44964  53.0565  21.3381 0001704  86.5823 273.5361 15.06413242168689
1 44964U 20001BC  23025.67600780  .00007190  00000-0  50101-3 0  9993
2 44964  53.0572  19.8487 0001745  93.5385 266.5803 15.06406927168733
1 44964U 20001BC  23025.67600780  .00007190  00000-0  50101-3 0  9993
2 44964  53.0572  19.8487 0001745  93.5385 266.5803 15.06406927168733
1 44964U 20001BC  23026.14043507  .00005108  00000-0  36149-3 0  9997
2 44964  53.0585  17.7677 0001838 103.5411 256.5783 15.06406259168802
1 44964U 20001BC  23026.14043507  .00005108  00000-0  36149-3 0  9997
2 44964  53.0585  17.7677 0001838 103.5411 256.5783 15.06406259168802
1 44964U 20001BC  23027.13563263 -.00001499  00000-0 -81711-4 0  9990
2 44964  53.0559  13.3012 0001969 113.2610 246.8586 15.06402642168953
1 44964U 20001BC  23027.33467103 -.00000513  00000-0 -15522-4 0  9991
2 44964  53.0559  12.4040 0001709  99.6866 260.4316 15.06408232168983
1 44964U 20001BC  23028.19718414  .00000446  00000-0  48865-4 0  9999
2 44964  53.0560   8.5318 0001780 102.4714 257.6474 15.06401356169112
1 44964U 20001BC  23028.26353027  .00000631  00000-0  61244-4 0  9994
2 44964  53.0557   8.2338 0001685  99.4706 260.6474 15.06402731169120
1 44964U 20001BC  23028.92702564 -.00003986  00000-0 -24903-3 0  9999
2 44964  53.0563   5.2554 0001851 102.3720 257.7476 15.06367895169220
1 44964U 20001BC  23029.25874908  .00002287  00000-0  17241-3 0  9996
2 44964  53.0559   3.7659 0001698  95.4362 264.6821 15.06393945169278
1 44964U 20001BC  23029.85586593  .00005749  00000-0  40443-3 0  9998
2 44964  53.0557   1.0857 0001629  92.7627 267.3549 15.06406428169363
1 44964U 20001BC  23030.25394102  .00012612  00000-0  86347-3 0  9997
2 44964  53.0555 359.2990 0001665  92.0314 268.0866 15.06426263169429
1 44964U 20001BC  23030.25394102  .00012612  00000-0  86347-3 0  9997
2 44964  53.0555 359.2990 0001665  92.0314 268.0866 15.06426263169429
1 44964U 20001BC  23030.85106480  .00004829  00000-0  34277-3 0  9999
2 44964  53.0552 356.6187 0001758 100.9591 259.1595 15.06413068169513
1 44964U 20001BC  23030.91741096  .00003602  00000-0  26049-3 0  9990
2 44964  53.0554 356.3208 0001706 101.5951 258.5229 15.06412218169520
1 44964U 20001BC  23031.31548828  .00003742  00000-0  26986-3 0  9998
2 44964  53.0556 354.5340 0001589  97.7375 262.3794 15.06413786169581
1 44964U 20001BC  23031.91260588 -.00002456  00000-0 -14598-3 0  9997
2 44964  53.0557 351.8533 0001527  95.9729 264.1434 15.06407223169671
